Skip Page Navigation
NASA Logo - Jet Propulsion Laboratory				+ View the NASA Portal
+ Center for Near-Earth Object Studies			
JPL Home	Earth	Solar System	Stars & Galaxies	Technology

JPL Solar System Dynamics
BODIES		ORBITS		EPHEMERIDES		TOOLS		PHYSICAL DATA		DISCOVERY		FAQ		SITE MAP

IMPORTANT: The SSD Announcement email list is now available. Major changes are coming in the near future, including possible hostname and/or URL changes. To be notified of such changes, subscribe to this email list.

Please visit this page for more details.


Don't show this message again
HORIZONS Web-Interface
This tool provides a web-based limited interface to JPL's HORIZONS system which can be used to generate ephemerides for solar-system bodies. Full access to HORIZONS features is available via the primary telnet interface. HORIZONS system news shows recent changes and improvements. A web-interface tutorial is available to assist new users.
Current Settings
Ephemeris Type [change] : 	ELEMENTS
Target Body [change] : 	Mercury Barycenter [1]
Center [change] : 	Solar System Barycenter (SSB) [500@0]
Time Span [change] : 	Start=JD 2458850.0, Stop=JD 2464329.0, Intervals=500
Table Settings [change] : 	CSV format=YES
Display/Output [change] : 	default (formatted HTML)
Object Data Page
 Revised: July 31, 2013              Mercury                            199 / 1

 PHYSICAL DATA (updated 2018-Aug-15):
  Vol. Mean Radius (km) =  2440+-1        Density (g cm^-3)     = 5.427
  Mass x10^23 (kg)      =     3.302       Volume (x10^10 km^3)  = 6.085  
  Sidereal rot. period  =    58.6463 d    Sid. rot. rate (rad/s)= 0.00000124001
  Mean solar day        =   175.9421 d    Core radius (km)      = ~1600 
  Geometric Albedo      =     0.106       Surface emissivity    = 0.77+-0.06
  GM (km^3/s^2)         = 22031.78        Equatorial radius, Re = 2440 km
  GM 1-sigma (km^3/s^2) =   +-0.91        Mass ratio (Sun/plnt) = 6023682
  Mom. of Inertia       =     0.33        Equ. gravity  m/s^2   = 3.701     
  Atmos. pressure (bar) = < 5x10^-15      Max. angular diam.    = 11.0"   
  Mean Temperature (K)  = 440             Visual mag. V(1,0)    = -0.42 
  Obliquity to orbit[1] =  2.11' +/- 0.1' Hill's sphere rad. Rp = 94.4 
  Sidereal orb. per.    =  0.2408467 y    Mean Orbit vel.  km/s = 47.362 
  Sidereal orb. per.    = 87.969257  d    Escape vel. km/s      =  4.435
                                 Perihelion  Aphelion    Mean
  Solar Constant (W/m^2)         14462       6278        9126
  Maximum Planetary IR (W/m^2)   12700       5500        8000
  Minimum Planetary IR (W/m^2)   6           6           6
Results
*******************************************************************************
Ephemeris / WWW_USER Fri May 15 19:40:22 2020 Pasadena, USA      / Horizons    
*******************************************************************************
Target body name: Mercury Barycenter (199)        {source: DE431mx}
Center body name: Solar System Barycenter (0)     {source: DE431mx}
Center-site name: BODY CENTER
*******************************************************************************
Start time      : A.D. 2020-Jan-01 12:00:00.0000 TDB
Stop  time      : A.D. 2035-Jan-01 12:00:00.0000 TDB
Step-size       : 500 steps
*******************************************************************************
Center geodetic : 0.00000000,0.00000000,0.0000000 {E-lon(deg),Lat(deg),Alt(km)}
Center cylindric: 0.00000000,0.00000000,0.0000000 {E-lon(deg),Dxy(km),Dz(km)}
Center radii    : (undefined)                                                  
Keplerian GM    : 2.9630912754977030E-04 au^3/d^2
Output units    : AU-D, deg, Julian Day Number (Tp)                            
Output type     : GEOMETRIC osculating elements
Output format   : 10
Reference frame : ICRF/J2000.0                                                 
Coordinate systm: Ecliptic and Mean Equinox of Reference Epoch                 
*******************************************************************************
            JDTDB,            Calendar Date (TDB),                     EC,                     QR,                     IN,                     OM,                      W,                     Tp,                      N,                     MA,                     TA,                      A,                     AD,                     PR,
**************************************************************************************************************************************************************************************************************************************************************************************************************************************************
$$SOE
2464109.840000000, A.D. 2034-May-27 08:09:36.0000,  2.000814658068749E-01,  3.174483359260560E-01,  6.999042585652387E+00,  4.825341568807186E+01,  3.218972141016909E+01,  2.464081635147598E+06,  3.945065374312421E+00,  1.112699866001767E+02,  1.304920144713928E+02,  3.968508321241301E-01,  4.762533283222042E-01,  9.125324065453385E+01,
2464120.798000000, A.D. 2034-Jun-07 07:09:07.2000,  1.956036161071422E-01,  3.173423334642084E-01,  7.002018958205254E+00,  4.825262760986265E+01,  2.830851955094638E+01,  2.464080501491711E+06,  3.980231160592781E+00,  1.603894179556682E+02,  1.664858022919111E+02,  3.945098956417947E-01,  4.716774578193811E-01,  9.044700809447076E+01,
2464131.756000000, A.D. 2034-Jun-18 06:08:38.4000,  2.052846498813845E-01,  3.110472807892979E-01,  7.003927714778839E+00,  4.826135792480272E+01,  2.587036756236507E+01,  2.464169507049692E+06,  4.027846729601191E+00,  2.079445579593413E+02,  1.990032233327962E+02,  3.913945801385018E-01,  4.717418794877055E-01,  8.937778028004672E+01,
2464142.714000000, A.D. 2034-Jun-29 05:08:09.6000,  2.184600506900046E-01,  3.021037745562242E-01,  7.004783058823705E+00,  4.827360036147535E+01,  2.761010792751232E+01,  2.464169222318319E+06,  4.103814235410273E+00,  2.512147859280714E+02,  2.299284155640651E+02,  3.865493693866130E-01,  4.709949642170018E-01,  8.772326897589443E+01,
2464153.672000000, A.D. 2034-Jul-10 04:07:40.8000,  2.157529357664899E-01,  2.960670157218161E-01,  7.004640980287558E+00,  4.828454441066635E+01,  3.335365881451899E+01,  2.464170082299341E+06,  4.251962841590752E+00,  2.902240169857878E+02,  2.654536883497126E+02,  3.775175314314749E-01,  4.589680471411337E-01,  8.466677941741284E+01,
2464164.630000000, A.D. 2034-Jul-21 03:07:12.0000,  1.822879474836258E-01,  3.009160926145539E-01,  7.004085320560827E+00,  4.828834710436573E+01,  3.216428142776767E+01,  2.464170196729595E+06,  4.418019465023947E+00,  3.354060802930023E+02,  3.245381077708829E+02,  3.679976242107894E-01,  4.350791558070249E-01,  8.148447575887913E+01,
2464175.588000000, A.D. 2034-Aug-01 02:06:43.2000,  2.092666896562577E-01,  3.018172509712159E-01,  7.004392085543416E+00,  4.829118817370421E+01,  2.364159005325296E+01,  2.464168936183417E+06,  4.182385978641498E+00,  2.782046441291768E+01,  4.217200242933040E+01,  3.816928501975109E-01,  4.615684494238060E-01,  8.607526943673750E+01,
2464186.546000000, A.D. 2034-Aug-12 01:06:14.4000,  2.197436751597338E-01,  3.087984172256505E-01,  7.004201926583223E+00,  4.830314881807353E+01,  3.128770990590916E+01,  2.464170042668010E+06,  3.961306946193725E+00,  6.537476364934513E+01,  9.037791895504870E+01,  3.957653496610458E-01,  4.827322820964412E-01,  9.087909745189295E+01,
2464197.504000000, A.D. 2034-Aug-23 00:05:45.6000,  2.014412524634789E-01,  3.171721251161050E-01,  7.002662448288046E+00,  4.831260111125765E+01,  3.249312122132587E+01,  2.464169694737263E+06,  3.940151639306155E+00,  1.095727121608623E+02,  1.292380286551662E+02,  3.971807034793011E-01,  4.771892818424973E-01,  9.136704192009080E+01,
2464208.462000000, A.D. 2034-Sep-02 23:05:16.8000,  1.949585418297042E-01,  3.182016118741417E-01,  7.000406473012299E+00,  4.831302944904522E+01,  2.869183977572338E+01,  2.464168490977809E+06,  3.968889008499916E+00,  1.586405506335836E+02,  1.652505764235205E+02,  3.952611491554145E-01,  4.723206864366875E-01,  9.070548438845506E+01,
2464219.420000000, A.D. 2034-Sep-13 22:04:48.0000,  2.037209279142042E-01,  3.124565161682038E-01,  6.997989365334029E+00,  4.830176913627967E+01,  2.581236359183585E+01,  2.464257627941183E+06,  4.012441564639101E+00,  2.066928686990700E+02,  1.981897446404329E+02,  3.923957405407459E-01,  4.723349649132880E-01,  8.972093280376038E+01,
2464230.378000000, A.D. 2034-Sep-24 21:04:19.2000,  2.178870807809719E-01,  3.032582651354961E-01,  6.996163308261061E+00,  4.827494696076629E+01,  2.714223498198378E+01,  2.464257194194584E+06,  4.084890015045081E+00,  2.504587945038933E+02,  2.293774232103185E+02,  3.877423038073734E-01,  4.722263424792507E-01,  8.812966779376725E+01,
2464241.336000000, A.D. 2034-Oct-05 20:03:50.4000,  2.178064336345658E-01,  2.961259853998449E-01,  6.996897173401889E+00,  4.822936817710278E+01,  3.302707749335456E+01,  2.464257998372392E+06,  4.234008525672320E+00,  2.894513732365551E+02,  2.644111108525307E+02,  3.785840208016967E-01,  4.610420562035484E-01,  8.502580895082997E+01,
2464252.294000000, A.D. 2034-Oct-16 19:03:21.6000,  1.830849013065638E-01,  3.000505202157190E-01,  7.004317430531020E+00,  4.818943949469949E+01,  3.328803951040805E+01,  2.464258324832704E+06,  4.430665420217632E+00,  3.332793980839311E+02,  3.215385089990100E+02,  3.672970675846439E-01,  4.345436149535688E-01,  8.125190368861500E+01,
2464263.252000000, A.D. 2034-Oct-27 18:02:52.8000,  2.060099440980795E-01,  3.010394909684675E-01,  7.014575062336563E+00,  4.823834534222696E+01,  2.316742509822963E+01,  2.464256835683143E+06,  4.224570244137948E+00,  2.710618127326876E+01,  4.087458211495252E+01,  3.791476841942389E-01,  4.572558774200103E-01,  8.521576851504345E+01,
